[{"OBJECT_NAME":"SRMSAT","OBJECT_ID":"2011-058D","EPOCH":"2026-04-26T10:09:36.766944","MEAN_MOTION":14.11563126,"ECCENTRICITY":0.0011682,"INCLINATION":19.9736,"RA_OF_ASC_NODE":12.7844,"ARG_OF_PERICENTER":354.8297,"MEAN_ANOMALY":161.0515,"EPHEMERIS_TYPE":0,"CLASSIFICATION_TYPE":"U","NORAD_CAT_ID":37841,"ELEMENT_SET_NO":999,"REV_AT_EPOCH":75049,"BSTAR":8.3152e-5,"MEAN_MOTION_DOT":4.18e-6,"MEAN_MOTION_DDOT":0},{"OBJECT_NAME":"SUOMI NPP","OBJECT_ID":"2011-061A","EPOCH":"2026-04-26T12:47:37.612608","MEAN_MOTION":14.19505962,"ECCENTRICITY":0.0002764,"INCLINATION":98.7925,"RA_OF_ASC_NODE":57.7709,"ARG_OF_PERICENTER":102.8103,"MEAN_ANOMALY":257.3382,"EPHEMERIS_TYPE":0,"CLASSIFICATION_TYPE":"U","NORAD_CAT_ID":37849,"ELEMENT_SET_NO":999,"REV_AT_EPOCH":75111,"BSTAR":5.8305e-5,"MEAN_MOTION_DOT":7.9e-7,"MEAN_MOTION_DDOT":0},{"OBJECT_NAME":"YAOGAN-12","OBJECT_ID":"2011-066B","EPOCH":"2026-04-26T12:53:30.879744","MEAN_MOTION":15.25917181,"ECCENTRICITY":0.0011475,"INCLINATION":97.1197,"RA_OF_ASC_NODE":157.5466,"ARG_OF_PERICENTER":56.0936,"MEAN_ANOMALY":304.1393,"EPHEMERIS_TYPE":0,"CLASSIFICATION_TYPE":"U","NORAD_CAT_ID":37875,"ELEMENT_SET_NO":999,"REV_AT_EPOCH":80416,"BSTAR":0.00036854,"MEAN_MOTION_DOT":9.404e-5,"MEAN_MOTION_DDOT":0},{"OBJECT_NAME":"BEIDOU-2 M4","OBJECT_ID":"2012-018B","EPOCH":"2026-04-23T08:25:46.067232","MEAN_MOTION":1.86229378,"ECCENTRICITY":0.00110642,"INCLINATION":55.7057,"RA_OF_ASC_NODE":305.9412,"ARG_OF_PERICENTER":284.1649,"MEAN_ANOMALY":75.7156,"EPHEMERIS_TYPE":0,"CLASSIFICATION_TYPE":"U","NORAD_CAT_ID":38251,"ELEMENT_SET_NO":999,"REV_AT_EPOCH":9491,"BSTAR":0,"MEAN_MOTION_DOT":-4.0e-7,"MEAN_MOTION_DDOT":0},{"OBJECT_NAME":"ARIRANG-3 (KOMPSAT-3)","OBJECT_ID":"2012-025B","EPOCH":"2026-04-26T12:05:12.761088","MEAN_MOTION":14.62159167,"ECCENTRICITY":0.0004018,"INCLINATION":98.1138,"RA_OF_ASC_NODE":74.8697,"ARG_OF_PERICENTER":280.8655,"MEAN_ANOMALY":79.2095,"EPHEMERIS_TYPE":0,"CLASSIFICATION_TYPE":"U","NORAD_CAT_ID":38338,"ELEMENT_SET_NO":999,"REV_AT_EPOCH":74379,"BSTAR":0.00010789,"MEAN_MOTION_DOT":4.96e-6,"MEAN_MOTION_DDOT":0},{"OBJECT_NAME":"HORYU-2","OBJECT_ID":"2012-025D","EPOCH":"2026-04-26T07:01:31.554048","MEAN_MOTION":14.90744602,"ECCENTRICITY":0.0007804,"INCLINATION":98.2093,"RA_OF_ASC_NODE":247.1419,"ARG_OF_PERICENTER":0.9501,"MEAN_ANOMALY":359.1729,"EPHEMERIS_TYPE":0,"CLASSIFICATION_TYPE":"U","NORAD_CAT_ID":38340,"ELEMENT_SET_NO":999,"REV_AT_EPOCH":74099,"BSTAR":0.00040609,"MEAN_MOTION_DOT":3.931e-5,"MEAN_MOTION_DDOT":0},{"OBJECT_NAME":"CSSWE","OBJECT_ID":"2012-048D","EPOCH":"2026-04-26T12:18:19.635264","MEAN_MOTION":15.41761392,"ECCENTRICITY":0.0057992,"INCLINATION":64.6622,"RA_OF_ASC_NODE":268.1952,"ARG_OF_PERICENTER":189.4248,"MEAN_ANOMALY":170.5806,"EPHEMERIS_TYPE":0,"CLASSIFICATION_TYPE":"U","NORAD_CAT_ID":38761,"ELEMENT_SET_NO":999,"REV_AT_EPOCH":10842,"BSTAR":0.00084914,"MEAN_MOTION_DOT":0.00038321,"MEAN_MOTION_DDOT":0},{"OBJECT_NAME":"CP5","OBJECT_ID":"2012-048F","EPOCH":"2026-04-25T22:32:10.369824","MEAN_MOTION":15.26343859,"ECCENTRICITY":0.00893108,"INCLINATION":64.6466,"RA_OF_ASC_NODE":325.0899,"ARG_OF_PERICENTER":192.2891,"MEAN_ANOMALY":167.6061,"EPHEMERIS_TYPE":0,"CLASSIFICATION_TYPE":"U","NORAD_CAT_ID":38763,"ELEMENT_SET_NO":999,"REV_AT_EPOCH":10878,"BSTAR":0.00051868932,"MEAN_MOTION_DOT":0.00015009,"MEAN_MOTION_DDOT":0},{"OBJECT_NAME":"METOP-B","OBJECT_ID":"2012-049A","EPOCH":"2026-04-26T10:50:38.713344","MEAN_MOTION":14.21433153,"ECCENTRICITY":0.0003399,"INCLINATION":98.6549,"RA_OF_ASC_NODE":168.9722,"ARG_OF_PERICENTER":124.0628,"MEAN_ANOMALY":236.0873,"EPHEMERIS_TYPE":0,"CLASSIFICATION_TYPE":"U","NORAD_CAT_ID":38771,"ELEMENT_SET_NO":999,"REV_AT_EPOCH":70591,"BSTAR":6.7034e-5,"MEAN_MOTION_DOT":1.03e-6,"MEAN_MOTION_DDOT":0},{"OBJECT_NAME":"SJ-9A","OBJECT_ID":"2012-056A","EPOCH":"2026-04-26T11:56:16.980000","MEAN_MOTION":14.85354601,"ECCENTRICITY":0.0027126,"INCLINATION":97.6675,"RA_OF_ASC_NODE":90.3357,"ARG_OF_PERICENTER":68.8231,"MEAN_ANOMALY":291.5879,"EPHEMERIS_TYPE":0,"CLASSIFICATION_TYPE":"U","NORAD_CAT_ID":38860,"ELEMENT_SET_NO":999,"REV_AT_EPOCH":69191,"BSTAR":0.00017261,"MEAN_MOTION_DOT":1.442e-5,"MEAN_MOTION_DDOT":0},{"OBJECT_NAME":"COSMOS 2484 (RODNIK-S 6)","OBJECT_ID":"2013-001C","EPOCH":"2026-04-26T11:15:29.312928","MEAN_MOTION":12.42937853,"ECCENTRICITY":0.0027188,"INCLINATION":82.4996,"RA_OF_ASC_NODE":254.0461,"ARG_OF_PERICENTER":145.3506,"MEAN_ANOMALY":214.9352,"EPHEMERIS_TYPE":0,"CLASSIFICATION_TYPE":"U","NORAD_CAT_ID":39059,"ELEMENT_SET_NO":999,"REV_AT_EPOCH":60213,"BSTAR":0.00042962,"MEAN_MOTION_DOT":7.0e-7,"MEAN_MOTION_DDOT":0},{"OBJECT_NAME":"SARAL","OBJECT_ID":"2013-009A","EPOCH":"2026-04-26T12:08:07.003968","MEAN_MOTION":14.3284295,"ECCENTRICITY":0.0002988,"INCLINATION":98.5565,"RA_OF_ASC_NODE":303.7256,"ARG_OF_PERICENTER":82.9386,"MEAN_ANOMALY":277.2138,"EPHEMERIS_TYPE":0,"CLASSIFICATION_TYPE":"U","NORAD_CAT_ID":39086,"ELEMENT_SET_NO":999,"REV_AT_EPOCH":68820,"BSTAR":6.167e-5,"MEAN_MOTION_DOT":1.25e-6,"MEAN_MOTION_DDOT":0},{"OBJECT_NAME":"AAUSAT 3","OBJECT_ID":"2013-009B","EPOCH":"2026-04-26T11:32:08.384640","MEAN_MOTION":14.39873272,"ECCENTRICITY":0.0011594,"INCLINATION":98.3703,"RA_OF_ASC_NODE":301.4536,"ARG_OF_PERICENTER":13.9792,"MEAN_ANOMALY":346.1715,"EPHEMERIS_TYPE":0,"CLASSIFICATION_TYPE":"U","NORAD_CAT_ID":39087,"ELEMENT_SET_NO":999,"REV_AT_EPOCH":68973,"BSTAR":0.00023383,"MEAN_MOTION_DOT":6.92e-6,"MEAN_MOTION_DDOT":0},{"OBJECT_NAME":"STRAND-1","OBJECT_ID":"2013-009E","EPOCH":"2026-04-26T11:10:40.190880","MEAN_MOTION":14.37131572,"ECCENTRICITY":0.0009221,"INCLINATION":98.3914,"RA_OF_ASC_NODE":297.9758,"ARG_OF_PERICENTER":32.965,"MEAN_ANOMALY":327.211,"EPHEMERIS_TYPE":0,"CLASSIFICATION_TYPE":"U","NORAD_CAT_ID":39090,"ELEMENT_SET_NO":999,"REV_AT_EPOCH":68963,"BSTAR":0.00011755,"MEAN_MOTION_DOT":3.07e-6,"MEAN_MOTION_DDOT":0},{"OBJECT_NAME":"BRITE-AUSTRIA","OBJECT_ID":"2013-009F","EPOCH":"2026-04-26T10:57:19.250784","MEAN_MOTION":14.36520633,"ECCENTRICITY":0.0010907,"INCLINATION":98.3985,"RA_OF_ASC_NODE":297.1753,"ARG_OF_PERICENTER":40.2856,"MEAN_ANOMALY":319.9136,"EPHEMERIS_TYPE":0,"CLASSIFICATION_TYPE":"U","NORAD_CAT_ID":39091,"ELEMENT_SET_NO":999,"REV_AT_EPOCH":68962,"BSTAR":8.0087e-5,"MEAN_MOTION_DOT":1.93e-6,"MEAN_MOTION_DDOT":0},{"OBJECT_NAME":"UNIBRITE","OBJECT_ID":"2013-009G","EPOCH":"2026-04-26T11:08:17.928096","MEAN_MOTION":14.36391682,"ECCENTRICITY":0.0009795,"INCLINATION":98.4024,"RA_OF_ASC_NODE":297.2811,"ARG_OF_PERICENTER":37.634,"MEAN_ANOMALY":322.553,"EPHEMERIS_TYPE":0,"CLASSIFICATION_TYPE":"U","NORAD_CAT_ID":39092,"ELEMENT_SET_NO":999,"REV_AT_EPOCH":68956,"BSTAR":8.3869e-5,"MEAN_MOTION_DOT":2.03e-6,"MEAN_MOTION_DDOT":0},{"OBJECT_NAME":"AIST-2 (RS43)","OBJECT_ID":"2013-015D","EPOCH":"2026-04-26T13:11:11.743008","MEAN_MOTION":15.25721281,"ECCENTRICITY":0.0021306,"INCLINATION":64.8693,"RA_OF_ASC_NODE":66.1053,"ARG_OF_PERICENTER":246.9406,"MEAN_ANOMALY":112.9478,"EPHEMERIS_TYPE":0,"CLASSIFICATION_TYPE":"U","NORAD_CAT_ID":39133,"ELEMENT_SET_NO":999,"REV_AT_EPOCH":71602,"BSTAR":0.00030731,"MEAN_MOTION_DOT":7.718e-5,"MEAN_MOTION_DDOT":0}]
