SRMSAT                  
1 37841U 11058D   26116.42334221  .00000418  00000+0  83152-4 0  9990
2 37841  19.9736  12.7844 0011682 354.8297 161.0515 14.11563126750496
SUOMI NPP               
1 37849U 11061A   26116.53307422  .00000079  00000+0  58305-4 0  9992
2 37849  98.7925  57.7709 0002764 102.8103 257.3382 14.19505962751119
YAOGAN-12               
1 37875U 11066B   26116.53716296  .00009404  00000+0  36854-3 0  9994
2 37875  97.1197 157.5466 0011475  56.0936 304.1393 15.25917181804169
BEIDOU-2 M4             
1 38251U 12018B   26113.35122763 -.00000040  00000+0  00000+0 0  9996
2 38251  55.7057 305.9412 0011064 284.1649  75.7156  1.86229378 94910
ARIRANG-3 (KOMPSAT-3)   
1 38338U 12025B   26116.50361992  .00000496  00000+0  10789-3 0  9992
2 38338  98.1138  74.8697 0004018 280.8655  79.2095 14.62159167743799
HORYU-2                 
1 38340U 12025D   26116.29272632  .00003931  00000+0  40609-3 0  9994
2 38340  98.2093 247.1419 0007804   0.9501 359.1729 14.90744602740995
CSSWE                   
1 38761U 12048D   26116.51272726  .00038321  00000+0  84914-3 0  9993
2 38761  64.6622 268.1952 0057992 189.4248 170.5806 15.41761392108425
CP5                     
1 38763U 12048F   26115.93900891  .00015009  00000+0  51869-3 0  9992
2 38763  64.6466 325.0899 0089310 192.2891 167.6061 15.26343859108787
METOP-B                 
1 38771U 12049A   26116.45183696  .00000103  00000+0  67034-4 0  9997
2 38771  98.6549 168.9722 0003399 124.0628 236.0873 14.21433153705919
SJ-9A                   
1 38860U 12056A   26116.49741875  .00001442  00000+0  17261-3 0  9990
2 38860  97.6675  90.3357 0027126  68.8231 291.5879 14.85354601691914
COSMOS 2484 (RODNIK-S 6)
1 39059U 13001C   26116.46908927  .00000070  00000+0  42962-3 0  9994
2 39059  82.4996 254.0461 0027188 145.3506 214.9352 12.42937853602130
SARAL                   
1 39086U 13009A   26116.50563662  .00000125  00000+0  61670-4 0  9999
2 39086  98.5565 303.7256 0002988  82.9386 277.2138 14.32842950688207
AAUSAT 3                
1 39087U 13009B   26116.48065260  .00000692  00000+0  23383-3 0  9995
2 39087  98.3703 301.4536 0011594  13.9792 346.1715 14.39873272689738
STRAND-1                
1 39090U 13009E   26116.46574295  .00000307  00000+0  11755-3 0  9993
2 39090  98.3914 297.9758 0009221  32.9650 327.2110 14.37131572689635
BRITE-AUSTRIA           
1 39091U 13009F   26116.45647281  .00000193  00000+0  80087-4 0  9997
2 39091  98.3985 297.1753 0010907  40.2856 319.9136 14.36520633689628
UNIBRITE                
1 39092U 13009G   26116.46409639  .00000203  00000+0  83869-4 0  9995
2 39092  98.4024 297.2811 0009795  37.6340 322.5530 14.36391682689562
AIST-2 (RS43)           
1 39133U 13015D   26116.54944147  .00007718  00000+0  30731-3 0  9992
2 39133  64.8693  66.1053 0021306 246.9406 112.9478 15.25721281716023
